[{"OBJECT_NAME":"FGRST (GLAST)","OBJECT_ID":"2008-029A","EPOCH":"2026-03-09T16:23:33.767808","MEAN_MOTION":15.23332347,"ECCENTRICITY":0.00078443,"INCLINATION":25.5809,"RA_OF_ASC_NODE":175.0882,"ARG_OF_PERICENTER":229.4432,"MEAN_ANOMALY":130.5423,"EPHEMERIS_TYPE":0,"CLASSIFICATION_TYPE":"U","NORAD_CAT_ID":33053,"ELEMENT_SET_NO":999,"REV_AT_EPOCH":98064,"BSTAR":0.0001824844,"MEAN_MOTION_DOT":4.798e-5,"MEAN_MOTION_DDOT":0},{"OBJECT_NAME":"STARLINK-31015","OBJECT_ID":"2023-191P","EPOCH":"2026-03-09T19:19:49.812960","MEAN_MOTION":15.26752131,"ECCENTRICITY":7.72e-5,"INCLINATION":42.9962,"RA_OF_ASC_NODE":102.3866,"ARG_OF_PERICENTER":289.0171,"MEAN_ANOMALY":71.0596,"EPHEMERIS_TYPE":0,"CLASSIFICATION_TYPE":"U","NORAD_CAT_ID":58521,"ELEMENT_SET_NO":999,"REV_AT_EPOCH":12546,"BSTAR":0.00087806012,"MEAN_MOTION_DOT":0.00023376,"MEAN_MOTION_DDOT":0}]
