FGRST (GLAST)           
1 33053U 08029A   26068.68302971  .00004798  00000+0  18248-3 0  9994
2 33053  25.5809 175.0882 0007844 229.4432 130.5423 15.23332346980642
STARLINK-31015          
1 58521U 23191P   26068.80543764  .00023376  00000+0  87806-3 0  9998
2 58521  42.9962 102.3866 0000772 289.0171  71.0596 15.26752131125464
